{"type": "FeatureCollection", "features": [ {"type": "Feature", "properties": {"norad_id": 67121, "name": "STARLINK-36124", "group": "last-30-days", "lat": 22.69391387498866, "lon": -98.98905969373034, "alt_km": 326.3435439398145, "timestamp": "2025-12-26T03:50:10.811245+00:00", "meta": {"OBJECT_NAME": "STARLINK-36124", "OBJECT_ID": "2025-299V", "EPOCH": "2025-12-25T20:00:01.999008", "MEAN_MOTION": 15.81707762, "ECCENTRICITY": 0.0001639, "INCLINATION": 42.9966, "RA_OF_ASC_NODE": 236.3413, "ARG_OF_PERICENTER": 269, "MEAN_ANOMALY": 64.9237, "EPHEMERIS_TYPE": 0, "CLASSIFICATION_TYPE": "U", "NORAD_CAT_ID": 67121, "ELEMENT_SET_NO": 999, "REV_AT_EPOCH": 291, "BSTAR": -0.0099885, "MEAN_MOTION_DOT": -0.01821353, "MEAN_MOTION_DDOT": 0}, "tle": {"line1": "1 67121U 25299V   25359.83335647 -.01821353  00000+0 -99885-2 0  9992", "line2": "2 67121  42.9966 236.3413 0001639 269.0000  64.9237 15.81707762  2910"}}, "geometry": {"type": "Point", "coordinates": [-98.98905969373034, 22.69391387498866]}}, {"type": "Feature", "properties": {"norad_id": 67122, "name": "STARLINK-36188", "group": "last-30-days", "lat": 23.629011146925478, "lon": -97.65616405644128, "alt_km": 326.40484351137184, "timestamp": "2025-12-26T03:50:10.811254+00:00", "meta": {"OBJECT_NAME": "STARLINK-36188", "OBJECT_ID": "2025-299W", "EPOCH": "2025-12-25T20:00:01.999008", "MEAN_MOTION": 15.81721773, "ECCENTRICITY": 0.0001746, "INCLINATION": 42.9969, "RA_OF_ASC_NODE": 236.3379, "ARG_OF_PERICENTER": 260.4718, "MEAN_ANOMALY": 74.9794, "EPHEMERIS_TYPE": 0, "CLASSIFICATION_TYPE": "U", "NORAD_CAT_ID": 67122, "ELEMENT_SET_NO": 999, "REV_AT_EPOCH": 291, "BSTAR": -0.0099772, "MEAN_MOTION_DOT": -0.01820708, "MEAN_MOTION_DDOT": 0}, "tle": {"line1": "1 67122U 25299W   25359.83335647 -.01820708  00000+0 -99772-2 0  9991", "line2": "2 67122  42.9969 236.3379 0001746 260.4718  74.9794 15.81721773  2912"}}, "geometry": {"type": "Point", "coordinates": [-97.65616405644128, 23.629011146925478]}}, {"type": "Feature", "properties": {"norad_id": 67123, "name": "STARLINK-36151", "group": "last-30-days", "lat": 21.601440733519798, "lon": -100.50401670873903, "alt_km": 326.6304085449501, "timestamp": "2025-12-26T03:50:10.811266+00:00", "meta": {"OBJECT_NAME": "STARLINK-36151", "OBJECT_ID": "2025-299X", "EPOCH": "2025-12-25T20:00:01.999008", "MEAN_MOTION": 15.81703828, "ECCENTRICITY": 0.0001624, "INCLINATION": 42.9972, "RA_OF_ASC_NODE": 236.3465, "ARG_OF_PERICENTER": 262.8185, "MEAN_ANOMALY": 69.3324, "EPHEMERIS_TYPE": 0, "CLASSIFICATION_TYPE": "U", "NORAD_CAT_ID": 67123, "ELEMENT_SET_NO": 999, "REV_AT_EPOCH": 291, "BSTAR": -0.010013, "MEAN_MOTION_DOT": -0.01824893, "MEAN_MOTION_DDOT": 0}, "tle": {"line1": "1 67123U 25299X   25359.83335647 -.01824893  00000+0 -10013-1 0  9991", "line2": "2 67123  42.9972 236.3465 0001624 262.8185  69.3324 15.81703828  2910"}}, "geometry": {"type": "Point", "coordinates": [-100.50401670873903, 21.601440733519798]}}, {"type": "Feature", "properties": {"norad_id": 67124, "name": "STARLINK-36195", "group": "last-30-days", "lat": 24.640695877334405, "lon": -96.17331984067414, "alt_km": 326.2143476466181, "timestamp": "2025-12-26T03:50:10.811279+00:00", "meta": {"OBJECT_NAME": "STARLINK-36195", "OBJECT_ID": "2025-299Y", "EPOCH": "2025-12-25T20:00:01.999008", "MEAN_MOTION": 15.817297, "ECCENTRICITY": 0.000174, "INCLINATION": 42.9972, "RA_OF_ASC_NODE": 236.3339, "ARG_OF_PERICENTER": 262.3211, "MEAN_ANOMALY": 74.8127, "EPHEMERIS_TYPE": 0, "CLASSIFICATION_TYPE": "U", "NORAD_CAT_ID": 67124, "ELEMENT_SET_NO": 999, "REV_AT_EPOCH": 291, "BSTAR": -0.0099875, "MEAN_MOTION_DOT": -0.01822946, "MEAN_MOTION_DDOT": 0}, "tle": {"line1": "1 67124U 25299Y   25359.83335647 -.01822946  00000+0 -99875-2 0  9993", "line2": "2 67124  42.9972 236.3339 0001740 262.3211  74.8127 15.81729700  2914"}}, "geometry": {"type": "Point", "coordinates": [-96.17331984067414, 24.640695877334405]}}, {"type": "Feature", "properties": {"norad_id": 67125, "name": "STARLINK-36219", "group": "last-30-days", "lat": 25.588846158639623, "lon": -94.74122008907892, "alt_km": 325.9228134698151, "timestamp": "2025-12-26T03:50:10.811289+00:00", "meta": {"OBJECT_NAME": "STARLINK-36219", "OBJECT_ID": "2025-299Z", "EPOCH": "2025-12-25T20:00:01.999008", "MEAN_MOTION": 15.81738277, "ECCENTRICITY": 0.0001646, "INCLINATION": 42.9968, "RA_OF_ASC_NODE": 236.3292, "ARG_OF_PERICENTER": 266.5921, "MEAN_ANOMALY": 72.137, "EPHEMERIS_TYPE": 0, "CLASSIFICATION_TYPE": "U", "NORAD_CAT_ID": 67125, "ELEMENT_SET_NO": 999, "REV_AT_EPOCH": 291, "BSTAR": -0.0099475, "MEAN_MOTION_DOT": -0.01817094, "MEAN_MOTION_DDOT": 0}, "tle": {"line1": "1 67125U 25299Z   25359.83335647 -.01817094  00000+0 -99475-2 0  9998", "line2": "2 67125  42.9968 236.3292 0001646 266.5921  72.1370 15.81738277  2917"}}, "geometry": {"type": "Point", "coordinates": [-94.74122008907892, 25.588846158639623]}}, {"type": "Feature", "properties": {"norad_id": 67126, "name": "STARLINK-36223", "group": "last-30-days", "lat": 26.66796348481077, "lon": -93.05568204683162, "alt_km": 325.86366434979027, "timestamp": "2025-12-26T03:50:10.811298+00:00", "meta": {"OBJECT_NAME": "STARLINK-36223", "OBJECT_ID": "2025-299AA", "EPOCH": "2025-12-25T20:00:01.999008", "MEAN_MOTION": 15.81741256, "ECCENTRICITY": 0.000172, "INCLINATION": 42.997, "RA_OF_ASC_NODE": 236.3247, "ARG_OF_PERICENTER": 263.7933, "MEAN_ANOMALY": 76.7936, "EPHEMERIS_TYPE": 0, "CLASSIFICATION_TYPE": "U", "NORAD_CAT_ID": 67126, "ELEMENT_SET_NO": 999, "REV_AT_EPOCH": 291, "BSTAR": -0.009953, "MEAN_MOTION_DOT": -0.01818271, "MEAN_MOTION_DDOT": 0}, "tle": {"line1": "1 67126U 25299AA  25359.83335647 -.01818271  00000+0 -99530-2 0  9999", "line2": "2 67126  42.9970 236.3247 0001720 263.7933  76.7936 15.81741256  2915"}}, "geometry": {"type": "Point", "coordinates": [-93.05568204683162, 26.66796348481077]}}, {"type": "Feature", "properties": {"norad_id": 67127, "name": "STARLINK-36164", "group": "last-30-days", "lat": 27.647220444529506, "lon": -91.46940580346674, "alt_km": 325.75000820064815, "timestamp": "2025-12-26T03:50:10.811308+00:00", "meta": {"OBJECT_NAME": "STARLINK-36164", "OBJECT_ID": "2025-299AB", "EPOCH": "2025-12-25T20:00:01.999008", "MEAN_MOTION": 15.81751332, "ECCENTRICITY": 0.0001708, "INCLINATION": 42.997, "RA_OF_ASC_NODE": 236.3204, "ARG_OF_PERICENTER": 261.7776, "MEAN_ANOMALY": 80.5211, "EPHEMERIS_TYPE": 0, "CLASSIFICATION_TYPE": "U", "NORAD_CAT_ID": 67127, "ELEMENT_SET_NO": 999, "REV_AT_EPOCH": 291, "BSTAR": -0.0099901, "MEAN_MOTION_DOT": -0.01824954, "MEAN_MOTION_DDOT": 0}, "tle": {"line1": "1 67127U 25299AB  25359.83335647 -.01824954  00000+0 -99901-2 0  9997", "line2": "2 67127  42.9970 236.3204 0001708 261.7776  80.5211 15.81751332  2913"}}, "geometry": {"type": "Point", "coordinates": [-91.46940580346674, 27.647220444529506]}}, {"type": "Feature", "properties": {"norad_id": 67128, "name": "STARLINK-35685", "group": "last-30-days", "lat": 30.170521021684205, "lon": -87.08735511769619, "alt_km": 325.42258546446647, "timestamp": "2025-12-26T03:50:10.811340+00:00", "meta": {"OBJECT_NAME": "STARLINK-35685", "OBJECT_ID": "2025-299AC", "EPOCH": "2025-12-25T20:00:01.999008", "MEAN_MOTION": 15.81721932, "ECCENTRICITY": 0.0001689, "INCLINATION": 42.9967, "RA_OF_ASC_NODE": 236.3084, "ARG_OF_PERICENTER": 264.6264, "MEAN_ANOMALY": 82.2997, "EPHEMERIS_TYPE": 0, "CLASSIFICATION_TYPE": "U", "NORAD_CAT_ID": 67128, "ELEMENT_SET_NO": 999, "REV_AT_EPOCH": 291, "BSTAR": -0.0099724, "MEAN_MOTION_DOT": -0.01819887, "MEAN_MOTION_DDOT": 0}, "tle": {"line1": "1 67128U 25299AC  25359.83335647 -.01819887  00000+0 -99724-2 0  9990", "line2": "2 67128  42.9967 236.3084 0001689 264.6264  82.2997 15.81721932  2911"}}, "geometry": {"type": "Point", "coordinates": [-87.08735511769619, 30.170521021684205]}}, {"type": "Feature", "properties": {"norad_id": 67129, "name": "STARLINK-36214", "group": "last-30-days", "lat": 28.7371553170166, "lon": -89.63298687110003, "alt_km": 325.5681641810588, "timestamp": "2025-12-26T03:50:10.811355+00:00", "meta": {"OBJECT_NAME": "STARLINK-36214", "OBJECT_ID": "2025-299AD", "EPOCH": "2025-12-25T20:00:01.999008", "MEAN_MOTION": 15.81748936, "ECCENTRICITY": 0.0001701, "INCLINATION": 42.9969, "RA_OF_ASC_NODE": 236.3152, "ARG_OF_PERICENTER": 263.7346, "MEAN_ANOMALY": 80.5191, "EPHEMERIS_TYPE": 0, "CLASSIFICATION_TYPE": "U", "NORAD_CAT_ID": 67129, "ELEMENT_SET_NO": 999, "REV_AT_EPOCH": 291, "BSTAR": -0.0099807, "MEAN_MOTION_DOT": -0.01823276, "MEAN_MOTION_DDOT": 0}, "tle": {"line1": "1 67129U 25299AD  25359.83335647 -.01823276  00000+0 -99807-2 0  9990", "line2": "2 67129  42.9969 236.3152 0001701 263.7346  80.5191 15.81748936  2916"}}, "geometry": {"type": "Point", "coordinates": [-89.63298687110003, 28.7371553170166]}}, {"type": "Feature", "properties": {"norad_id": 67130, "name": "STARLINK-36194", "group": "last-30-days", "lat": 32.46353769446397, "lon": -82.63795290751094, "alt_km": 325.301719175427, "timestamp": "2025-12-26T03:50:10.811370+00:00", "meta": {"OBJECT_NAME": "STARLINK-36194", "OBJECT_ID": "2025-299AE", "EPOCH": "2025-12-25T20:00:01.999008", "MEAN_MOTION": 15.8162925, "ECCENTRICITY": 0.0001656, "INCLINATION": 42.9968, "RA_OF_ASC_NODE": 236.2986, "ARG_OF_PERICENTER": 267.9861, "MEAN_ANOMALY": 83.4895, "EPHEMERIS_TYPE": 0, "CLASSIFICATION_TYPE": "U", "NORAD_CAT_ID": 67130, "ELEMENT_SET_NO": 999, "REV_AT_EPOCH": 291, "BSTAR": -0.010007, "MEAN_MOTION_DOT": -0.01818468, "MEAN_MOTION_DDOT": 0}, "tle": {"line1": "1 67130U 25299AE  25359.83335647 -.01818468  00000+0 -10007-1 0  9993", "line2": "2 67130  42.9968 236.2986 0001656 267.9861  83.4895 15.81629250  2918"}}, "geometry": {"type": "Point", "coordinates": [-82.63795290751094, 32.46353769446397]}}]}